ONEWEB-0199             
1 48234U 21031AA  24203.16430134  .00000199  00000+0  50144-3 0  9996
2 48234  87.8936  68.1552 0001880  75.6229 284.5110 13.14504570156822
ONEWEB-0203             
1 48235U 21031AB  24203.61149882  .00000251  00000+0  64189-3 0  9997
2 48235  87.8937  68.0675 0001338  75.3859 284.7419 13.14503740156892
ONEWEB-0197             
1 48236U 21031AC  24203.58691831 -.00000098  00000+0 -29758-3 0  9994
2 48236  87.8936  68.0811 0002086  86.9895 273.1473 13.14503543156807
ONEWEB-0194             
1 48237U 21031AD  24203.56550694 -.00000075  00000+0 -23595-3 0  9992
2 48237  87.8938  68.0784 0001845  72.5685 287.5647 13.14504326156979
ONEWEB-0193             
1 48238U 21031AE  24203.58136155 -.00000186  00000+0 -53622-3 0  9994
2 48238  87.8937  68.0836 0001649  77.9230 282.2085 13.14503713156926
ONEWEB-0191             
1 48239U 21031AF  24203.59246803 -.00000026  00000+0 -10415-3 0  9994
2 48239  87.8932  68.0640 0001677  78.7298 281.4020 13.14503425156783
ONEWEB-0195             
1 48240U 21031AG  24203.56947384 -.00000127  00000+0 -37756-3 0  9994
2 48240  87.8935  68.0675 0001328  84.9649 275.1632 13.14504492156760
ONEWEB-0201             
1 48241U 21031AH  24203.63448997  .00000031  00000+0  48058-4 0  9999
2 48241  87.8939  68.0905 0001627  84.0516 276.0799 13.14502708157007
